[{"OBJECT_NAME":"STARLINK-32906","OBJECT_ID":"2025-037D","EPOCH":"2026-03-09T22:21:33.765984","MEAN_MOTION":14.98332215,"ECCENTRICITY":0.00032932,"INCLINATION":70.0028,"RA_OF_ASC_NODE":354.027,"ARG_OF_PERICENTER":275.1513,"MEAN_ANOMALY":84.927,"EPHEMERIS_TYPE":0,"CLASSIFICATION_TYPE":"U","NORAD_CAT_ID":63080,"ELEMENT_SET_NO":999,"REV_AT_EPOCH":5863,"BSTAR":0.00086720793,"MEAN_MOTION_DOT":0.0001027,"MEAN_MOTION_DDOT":0},{"OBJECT_NAME":"DMSP 5D-2 F13 DEB","OBJECT_ID":"1995-015CP","EPOCH":"2026-03-07T12:11:36.379680","MEAN_MOTION":14.97633156,"ECCENTRICITY":0.00060588,"INCLINATION":98.7878,"RA_OF_ASC_NODE":156.2683,"ARG_OF_PERICENTER":182.3212,"MEAN_ANOMALY":177.798,"EPHEMERIS_TYPE":0,"CLASSIFICATION_TYPE":"U","NORAD_CAT_ID":40500,"ELEMENT_SET_NO":999,"REV_AT_EPOCH":57139,"BSTAR":0.013984163,"MEAN_MOTION_DOT":0.00167441,"MEAN_MOTION_DDOT":0}]
